LUR-1                   
1 60506U 24149AQ  26129.78338338  .00005107  00000+0  18061-3 0  9991
2 60506  97.3737 208.9044 0005681  86.7400 273.4491 15.29601987 96101
TANAGER-1               
1 60507U 24149AR  26129.81114215  .00009656  00000+0  20971-3 0  9998
2 60507  97.3250 223.9203 0006456  83.5467 276.6517 15.44550141 97113
EAGLEEYE                
1 60508U 24149AS  26129.80464552  .00051241  00000+0  52420-3 0  9991
2 60508  97.3722 221.2220 0002075  61.4352 298.7116 15.64867721 96924
FLOCK 4BE-29            
1 60509U 24149AT  26129.79989612  .00011748  00000+0  26932-3 0  9996
2 60509  97.3799 215.1351 0004020  88.6887 271.4821 15.42898196 96491
TRANSPORTER-11 OBJECT AU
1 60510U 24149AU  26129.77759544  .00010753  00000+0  27900-3 0  9996
2 60510  97.3723 213.2253 0004885  78.7485 281.4309 15.39160447 96403
FLOCK 4BE-2             
1 60511U 24149AV  26129.79103334  .00034201  00000+0  63447-3 0  9999
2 60511  97.3816 216.1178 0003806  88.4260 271.7426 15.48879506 96557
FLOCK 4BE-13            
1 60512U 24149AW  26129.78763213  .00010397  00000+0  25520-3 0  9997
2 60512  97.3713 213.8327 0004946  62.7608 297.4142 15.40865058 96459
FLOCK 4BE-27            
1 60513U 24149AX  26129.77549153  .00006632  00000+0  20535-3 0  9990
2 60513  97.3819 211.6292 0005445  87.1366 273.0500 15.33785339 96252
FLOCK 4BE-9             
1 60514U 24149AY  26129.75805647  .00011826  00000+0  30174-3 0  9993
2 60514  97.3782 213.6936 0004133  91.1307 269.0413 15.39653739 96401
FLOCK 4BE-6             
1 60516U 24149BA  26129.75779350  .00011016  00000+0  29163-3 0  9993
2 60516  97.3785 213.1207 0004867  87.1127 273.0675 15.38536023 96366
FLOCK 4BE-14            
1 60517U 24149BB  26129.77492297  .00011361  00000+0  28831-3 0  9992
2 60517  97.3689 213.2444 0005708  84.5283 275.6614 15.39821894 96414
FLOCK 4BE-1             
1 60518U 24149BC  26129.76472104  .00011837  00000+0  28579-3 0  9994
2 60518  97.3774 214.3770 0005245  84.9711 275.2134 15.41328927 96459
FLOCK 4BE-28            
1 60519U 24149BD  26129.77078633  .00014250  00000+0  31877-3 0  9992
2 60519  97.3741 214.9906 0005342  79.4180 280.7670 15.43577931 96514
IPERDRONE.0             
1 60520U 24149BE  26129.72388051  .00049559  00000+0  57443-3 0  9994
2 60520  97.3770 221.2015 0001925  52.2011 307.9421 15.61667703 96901
TRANSPORTER-11 OBJECT BF
1 60521U 24149BF  26129.81070284  .00096529  00000+0  73408-3 0  9999
2 60521  97.3777 223.2161 0000643   0.5134 359.6129 15.71997364 97035
CONNECTA IOT-2          
1 60522U 24149BG  26129.76454323  .00003748  00000+0  15919-3 0  9998
2 60522  97.3838 208.5021 0008185  99.5916 260.6246 15.23646056 96047
PTD-R (TYVAK-0127)      
1 60523U 24149BH  26129.80062183  .00139540  00000+0  53524-3 0  9997
2 60523  97.3758 227.1635 0001101 194.2373 165.8868 15.87044142 97313
CONNECTA IOT-4          
1 60524U 24149BJ  26129.77551925  .00014072  00000+0  34568-3 0  9990
2 60524  97.3790 213.7357 0006353  77.1408 283.0547 15.40754861 96416
ORESAT0.5               
1 60525U 24149BK  26129.75907701  .00014296  00000+0  31877-3 0  9994
2 60525  97.3713 215.2166 0006345  67.8478 292.3442 15.43666828 96540
DEIMOS                  
1 60526U 24149BL  26129.77093914  .00014189  00000+0  32488-3 0  9999
2 60526  97.3770 215.3864 0006517  73.2110 286.9852 15.42876913 96524
CUAVA-2                 
1 60527U 24149BM  26129.76822980  .00009149  00000+0  26947-3 0  9995
2 60527  97.3721 211.2499 0008004  76.4805 283.7330 15.35240442 96271
ERNST                   
1 60528U 24149BN  26129.80007410  .00010219  00000+0  27351-3 0  9994
2 60528  97.3800 213.2640 0007401  80.0251 280.1829 15.38204187 96370
TORO                    
1 60530U 24149BQ  26129.52146810  .00000889  00000+0  83773-4 0  9997
2 60530  97.6791 204.9135 0001658  94.7243 265.4167 14.96281206 94179
HYPSO-2                 
1 60531U 24149BR  26129.74328978  .00001764  00000+0  15194-3 0  9993
2 60531  97.6811 206.5674 0001948 116.4075 243.7348 14.98598732 94296
LEMU NGE                
1 60532U 24149BS  26129.76326846  .00001893  00000+0  17918-3 0  9997
2 60532  97.6847 205.5022 0002511 117.0809 243.0668 14.94794723 94215
LEMUR-2-STELLA          
1 60533U 24149BT  26129.81384706  .00007525  00000+0  45465-3 0  9999
2 60533  97.6730 212.1293 0002005 123.0954 237.0468 15.10974393 94704
SATELIOT_2              
1 60534U 24149BU  26129.77450578  .00001237  00000+0  11475-3 0  9994
2 60534  97.6836 205.4338 0001380 107.5449 252.5923 14.96221561 94228
NIGHTJAR                
1 60535U 24149BV  26129.74008817  .00001958  00000+0  16734-3 0  9990
2 60535  97.6832 206.9866 0000941 164.4375 195.6876 14.98792050137117
LEMUR-2-MARHISYAM       
1 60536U 24149BW  26129.78074573  .00008415  00000+0  51514-3 0  9997
2 60536  97.6868 212.5044 0001301 210.1075 150.0080 15.10461910 94684
SATELIOT_4              
1 60537U 24149BX  26129.72639867  .00001109  00000+0  10259-3 0  9999
2 60537  97.6738 204.9404 0002787 136.4817 223.6625 14.96526436 94229
