OBJECT_NAME,OBJECT_ID,EPOCH,MEAN_MOTION,ECCENTRICITY,INCLINATION,RA_OF_ASC_NODE,ARG_OF_PERICENTER,MEAN_ANOMALY,EPHEMERIS_TYPE,CLASSIFICATION_TYPE,NORAD_CAT_ID,ELEMENT_SET_NO,REV_AT_EPOCH,BSTAR,MEAN_MOTION_DOT,MEAN_MOTION_DDOT
LUR-1,2024-149AQ,2026-05-09T18:48:04.324032,15.29601987,.0005681,97.3737,208.9044,86.7400,273.4491,0,U,60506,999,9610,.18061E-3,.5107E-4,0
TANAGER-1,2024-149AR,2026-05-09T19:28:02.681760,15.44550141,.0006456,97.3250,223.9203,83.5467,276.6517,0,U,60507,999,9711,.20971E-3,.9656E-4,0
EAGLEEYE,2024-149AS,2026-05-09T19:18:41.372928,15.64867721,.0002075,97.3722,221.2220,61.4352,298.7116,0,U,60508,999,9692,.5242E-3,.51241E-3,0
FLOCK 4BE-29,2024-149AT,2026-05-09T19:11:51.024768,15.42898196,.000402,97.3799,215.1351,88.6887,271.4821,0,U,60509,999,9649,.26932E-3,.11748E-3,0
TRANSPORTER-11 OBJECT AU,2024-149AU,2026-05-09T18:39:44.246016,15.39160447,.0004885,97.3723,213.2253,78.7485,281.4309,0,U,60510,999,9640,.279E-3,.10753E-3,0
FLOCK 4BE-2,2024-149AV,2026-05-09T18:59:05.280576,15.48879506,.0003806,97.3816,216.1178,88.4260,271.7426,0,U,60511,999,9655,.63447E-3,.34201E-3,0
FLOCK 4BE-13,2024-149AW,2026-05-09T18:54:11.416032,15.40865058,.0004946,97.3713,213.8327,62.7608,297.4142,0,U,60512,999,9645,.2552E-3,.10397E-3,0
FLOCK 4BE-27,2024-149AX,2026-05-09T18:36:42.468192,15.33785339,.0005445,97.3819,211.6292,87.1366,273.0500,0,U,60513,999,9625,.20535E-3,.6632E-4,0
FLOCK 4BE-9,2024-149AY,2026-05-09T18:11:36.079008,15.39653739,.0004133,97.3782,213.6936,91.1307,269.0413,0,U,60514,999,9640,.30174E-3,.11826E-3,0
FLOCK 4BE-6,2024-149BA,2026-05-09T18:11:13.358400,15.38536023,.0004867,97.3785,213.1207,87.1127,273.0675,0,U,60516,999,9636,.29163E-3,.11016E-3,0
FLOCK 4BE-14,2024-149BB,2026-05-09T18:35:53.344608,15.39821894,.0005708,97.3689,213.2444,84.5283,275.6614,0,U,60517,999,9641,.28831E-3,.11361E-3,0
FLOCK 4BE-1,2024-149BC,2026-05-09T18:21:11.897856,15.41328927,.0005245,97.3774,214.3770,84.9711,275.2134,0,U,60518,999,9645,.28579E-3,.11837E-3,0
FLOCK 4BE-28,2024-149BD,2026-05-09T18:29:55.938912,15.43577931,.0005342,97.3741,214.9906,79.4180,280.7670,0,U,60519,999,9651,.31877E-3,.1425E-3,0
IPERDRONE.0,2024-149BE,2026-05-09T17:22:23.276064,15.61667703,.0001925,97.3770,221.2015,52.2011,307.9421,0,U,60520,999,9690,.57443E-3,.49559E-3,0
TRANSPORTER-11 OBJECT BF,2024-149BF,2026-05-09T19:27:24.725376,15.71997364,.0000643,97.3777,223.2161,0.5134,359.6129,0,U,60521,999,9703,.73408E-3,.96529E-3,0
CONNECTA IOT-2,2024-149BG,2026-05-09T18:20:56.535072,15.23646056,.0008185,97.3838,208.5021,99.5916,260.6246,0,U,60522,999,9604,.15919E-3,.3748E-4,0
PTD-R (TYVAK-0127),2024-149BH,2026-05-09T19:12:53.726112,15.87044142,.0001101,97.3758,227.1635,194.2373,165.8868,0,U,60523,999,9731,.53524E-3,.13954E-2,0
CONNECTA IOT-4,2024-149BJ,2026-05-09T18:36:44.863200,15.40754861,.0006353,97.3790,213.7357,77.1408,283.0547,0,U,60524,999,9641,.34568E-3,.14072E-3,0
ORESAT0.5,2024-149BK,2026-05-09T18:13:04.253664,15.43666828,.0006345,97.3713,215.2166,67.8478,292.3442,0,U,60525,999,9654,.31877E-3,.14296E-3,0
DEIMOS,2024-149BL,2026-05-09T18:30:09.141696,15.42876913,.0006517,97.3770,215.3864,73.2110,286.9852,0,U,60526,999,9652,.32488E-3,.14189E-3,0
CUAVA-2,2024-149BM,2026-05-09T18:26:15.054720,15.35240442,.0008004,97.3721,211.2499,76.4805,283.7330,0,U,60527,999,9627,.26947E-3,.9149E-4,0
ERNST,2024-149BN,2026-05-09T19:12:06.402240,15.38204187,.0007401,97.3800,213.2640,80.0251,280.1829,0,U,60528,999,9637,.27351E-3,.10219E-3,0
TORO,2024-149BQ,2026-05-09T12:30:54.843840,14.96281206,.0001658,97.6791,204.9135,94.7243,265.4167,0,U,60530,999,9417,.83773E-4,.889E-5,0
HYPSO-2,2024-149BR,2026-05-09T17:50:20.236992,14.98598732,.0001948,97.6811,206.5674,116.4075,243.7348,0,U,60531,999,9429,.15194E-3,.1764E-4,0
LEMU NGE,2024-149BS,2026-05-09T18:19:06.394944,14.94794723,.0002511,97.6847,205.5022,117.0809,243.0668,0,U,60532,999,9421,.17918E-3,.1893E-4,0
LEMUR-2-STELLA,2024-149BT,2026-05-09T19:31:56.385984,15.10974393,.0002005,97.6730,212.1293,123.0954,237.0468,0,U,60533,999,9470,.45465E-3,.7525E-4,0
SATELIOT_2,2024-149BU,2026-05-09T18:35:17.299392,14.96221561,.000138,97.6836,205.4338,107.5449,252.5923,0,U,60534,999,9422,.11475E-3,.1237E-4,0
NIGHTJAR,2024-149BV,2026-05-09T17:45:43.617888,14.98792050,.0000941,97.6832,206.9866,164.4375,195.6876,0,U,60535,999,13711,.16734E-3,.1958E-4,0
LEMUR-2-MARHISYAM,2024-149BW,2026-05-09T18:44:16.431072,15.10461910,.0001301,97.6868,212.5044,210.1075,150.0080,0,U,60536,999,9468,.51514E-3,.8415E-4,0
SATELIOT_4,2024-149BX,2026-05-09T17:26:00.845088,14.96526436,.0002787,97.6738,204.9404,136.4817,223.6625,0,U,60537,999,9422,.10259E-3,.1109E-4,0
